ONEWEB-0233             
1 48795U 21045AE  24196.93456076  .00005532  00000+0  14745-1 0  9993
2 48795  87.9021  38.9896 0001700  81.0875 279.0448 13.15111452151962
ONEWEB-0190             
1 48796U 21045AF  24196.84503442  .00000093  00000+0  21221-3 0  9990
2 48796  87.9022  38.9669 0002080  56.6763 303.4566 13.15547992152021
ONEWEB-0236             
1 48797U 21045AG  24196.93852282  .00000120  00000+0  28438-3 0  9998
2 48797  87.9027  38.9432 0001683  82.8756 277.2566 13.15547466151928
ONEWEB-0248             
1 48798U 21045AH  24196.79907869  .00000139  00000+0  33398-3 0  9996
2 48798  87.9020  38.9593 0001405  60.6689 299.4581 13.15547325152064
ONEWEB-0225             
1 48799U 21045AJ  24196.82126199 -.00000044  00000+0 -14979-3 0  9991
2 48799  87.9023  38.9681 0001787  70.4435 289.6888 13.15547442152079
ONEWEB-0215             
1 48800U 21045AK  24196.94327241  .00000124  00000+0  29599-3 0  9999
2 48800  87.9016  38.9164 0001647  54.8512 305.2773 13.15548073151963
ONEWEB-0216             
1 48801U 21045AL  24196.80066349  .00000121  00000+0  28668-3 0  9997
2 48801  87.9019  38.9861 0002092  82.8604 277.2764 13.15547287151952
ONEWEB-0239             
1 48802U 21045AM  24196.80541684 -.00000005  00000+0 -48024-4 0  9990
2 48802  87.9028  38.9632 0001425  52.9254 307.2007 13.15547782151995
